{
  "type": "FeatureCollection",
  "features": [
    {
      "type": "Feature",
      "properties": {
        "norad_id": 30350,
        "name": "FENGYUN 1C DEB",
        "group": "fengyun-1c-debris",
        "lat": -58.91174583372331,
        "lon": 176.7573910178456,
        "alt_km": 805.3786392031961,
        "timestamp": "2025-12-10T09:57:44.975058+00:00",
        "meta_object_name": "FENGYUN 1C DEB",
        "meta_object_id": "1999-025ABM",
        "meta_epoch": "2025-12-09T18:40:54.242976",
        "meta_mean_motion": 13.82805469,
        "meta_eccentricity": 0.0219392,
        "meta_inclination": 98.0926,
        "meta_ra_of_asc_node": 162.5609,
        "meta_arg_of_pericenter": 316.901,
        "meta_mean_anomaly": 56.1256,
        "meta_ephemeris_type": 0,
        "meta_classification_type": "U",
        "meta_norad_cat_id": 30350,
        "meta_element_set_no": 999,
        "meta_rev_at_epoch": 94941,
        "meta_bstar": 0.0011228,
        "meta_mean_motion_dot": 1.434e-05,
        "meta_mean_motion_ddot": 0,
        "tle_line1": "1 30350U 99025ABM 25343.77840559  .00001434  00000+0  11228-2 0  9995",
        "tle_line2": "2 30350  98.0926 162.5609 0219392 316.9010  56.1256 13.82805469949410"
      },
      "geometry": {
        "type": "Point",
        "coordinates": [
          176.7573910178456,
          -58.91174583372331
        ]
      }
    },
    {
      "type": "Feature",
      "properties": {
        "norad_id": 30352,
        "name": "FENGYUN 1C DEB",
        "group": "fengyun-1c-debris",
        "lat": 5.679021977008877,
        "lon": 4.683734011234389,
        "alt_km": 854.226133232668,
        "timestamp": "2025-12-10T09:57:44.975068+00:00",
        "meta_object_name": "FENGYUN 1C DEB",
        "meta_object_id": "1999-025ABP",
        "meta_epoch": "2025-12-09T19:24:24.488064",
        "meta_mean_motion": 14.07581684,
        "meta_eccentricity": 0.0027915,
        "meta_inclination": 98.7648,
        "meta_ra_of_asc_node": 4.9744,
        "meta_arg_of_pericenter": 327.7243,
        "meta_mean_anomaly": 206.3921,
        "meta_ephemeris_type": 0,
        "meta_classification_type": "U",
        "meta_norad_cat_id": 30352,
        "meta_element_set_no": 999,
        "meta_rev_at_epoch": 96869,
        "meta_bstar": 0.00041027,
        "meta_mean_motion_dot": 6.52e-06,
        "meta_mean_motion_ddot": 0,
        "tle_line1": "1 30352U 99025ABP 25343.80861676  .00000652  00000+0  41027-3 0  9996",
        "tle_line2": "2 30352  98.7648   4.9744 0027915 327.7243 206.3921 14.07581684968692"
      },
      "geometry": {
        "type": "Point",
        "coordinates": [
          4.683734011234389,
          5.679021977008877
        ]
      }
    },
    {
      "type": "Feature",
      "properties": {
        "norad_id": 30355,
        "name": "FENGYUN 1C DEB",
        "group": "fengyun-1c-debris",
        "lat": -78.33737057028672,
        "lon": 121.76964697885589,
        "alt_km": 814.1408747685373,
        "timestamp": "2025-12-10T09:57:44.975079+00:00",
        "meta_object_name": "FENGYUN 1C DEB",
        "meta_object_id": "1999-025ABS",
        "meta_epoch": "2025-12-08T22:58:11.033760",
        "meta_mean_motion": 14.18804015,
        "meta_eccentricity": 0.0053278,
        "meta_inclination": 98.5885,
        "meta_ra_of_asc_node": 347.4258,
        "meta_arg_of_pericenter": 320.544,
        "meta_mean_anomaly": 59.0299,
        "meta_ephemeris_type": 0,
        "meta_classification_type": "U",
        "meta_norad_cat_id": 30355,
        "meta_element_set_no": 999,
        "meta_rev_at_epoch": 97297,
        "meta_bstar": 0.00090894,
        "meta_mean_motion_dot": 1.874e-05,
        "meta_mean_motion_ddot": 0,
        "tle_line1": "1 30355U 99025ABS 25342.95707215  .00001874  00000+0  90894-3 0  9995",
        "tle_line2": "2 30355  98.5885 347.4258 0053278 320.5440  59.0299 14.18804015972977"
      },
      "geometry": {
        "type": "Point",
        "coordinates": [
          121.76964697885589,
          -78.33737057028672
        ]
      }
    },
    {
      "type": "Feature",
      "properties": {
        "norad_id": 30356,
        "name": "FENGYUN 1C DEB",
        "group": "fengyun-1c-debris",
        "lat": 66.97521664475933,
        "lon": -179.20500150765173,
        "alt_km": 880.0541887186773,
        "timestamp": "2025-12-10T09:57:44.975089+00:00",
        "meta_object_name": "FENGYUN 1C DEB",
        "meta_object_id": "1999-025ABT",
        "meta_epoch": "2025-12-08T22:01:42.608928",
        "meta_mean_motion": 14.13018951,
        "meta_eccentricity": 0.0052127,
        "meta_inclination": 98.6811,
        "meta_ra_of_asc_node": 338.2739,
        "meta_arg_of_pericenter": 299.9543,
        "meta_mean_anomaly": 119.3086,
        "meta_ephemeris_type": 0,
        "meta_classification_type": "U",
        "meta_norad_cat_id": 30356,
        "meta_element_set_no": 999,
        "meta_rev_at_epoch": 96967,
        "meta_bstar": 0.0010167,
        "meta_mean_motion_dot": 1.878e-05,
        "meta_mean_motion_ddot": 0,
        "tle_line1": "1 30356U 99025ABT 25342.91785427  .00001878  00000+0  10167-2 0  9991",
        "tle_line2": "2 30356  98.6811 338.2739 0052127 299.9543 119.3086 14.13018951969673"
      },
      "geometry": {
        "type": "Point",
        "coordinates": [
          -179.20500150765173,
          66.97521664475933
        ]
      }
    },
    {
      "type": "Feature",
      "properties": {
        "norad_id": 30357,
        "name": "FENGYUN 1C DEB",
        "group": "fengyun-1c-debris",
        "lat": 2.800436086915461,
        "lon": 11.296535417833375,
        "alt_km": 846.187817873677,
        "timestamp": "2025-12-10T09:57:44.975099+00:00",
        "meta_object_name": "FENGYUN 1C DEB",
        "meta_object_id": "1999-025ABU",
        "meta_epoch": "2025-12-09T01:44:32.716896",
        "meta_mean_motion": 14.05261102,
        "meta_eccentricity": 0.00490105,
        "meta_inclination": 98.8066,
        "meta_ra_of_asc_node": 10.4274,
        "meta_arg_of_pericenter": 340.5988,
        "meta_mean_anomaly": 74.2246,
        "meta_ephemeris_type": 0,
        "meta_classification_type": "U",
        "meta_norad_cat_id": 30357,
        "meta_element_set_no": 999,
        "meta_rev_at_epoch": 96755,
        "meta_bstar": 0.00017605676,
        "meta_mean_motion_dot": 2.45e-06,
        "meta_mean_motion_ddot": 0,
        "tle_line1": "1 30357U 99025ABU 25343.07260089  .00000245  00000+0  17606-3 0  9995",
        "tle_line2": "2 30357  98.8066  10.4274 0049010 340.5988  74.2246 14.05261102967555"
      },
      "geometry": {
        "type": "Point",
        "coordinates": [
          11.296535417833375,
          2.800436086915461
        ]
      }
    },
    {
      "type": "Feature",
      "properties": {
        "norad_id": 30358,
        "name": "FENGYUN 1C DEB",
        "group": "fengyun-1c-debris",
        "lat": -80.67285515331211,
        "lon": -72.80541630539129,
        "alt_km": 800.2585132661243,
        "timestamp": "2025-12-10T09:57:44.975109+00:00",
        "meta_object_name": "FENGYUN 1C DEB",
        "meta_object_id": "1999-025ABV",
        "meta_epoch": "2025-12-09T12:43:21.123840",
        "meta_mean_motion": 14.20629974,
        "meta_eccentricity": 0.00828345,
        "meta_inclination": 98.5543,
        "meta_ra_of_asc_node": 172.7468,
        "meta_arg_of_pericenter": 208.9036,
        "meta_mean_anomaly": 212.9777,
        "meta_ephemeris_type": 0,
        "meta_classification_type": "U",
        "meta_norad_cat_id": 30358,
        "meta_element_set_no": 999,
        "meta_rev_at_epoch": 96872,
        "meta_bstar": 0.0028445413,
        "meta_mean_motion_dot": 6.3e-05,
        "meta_mean_motion_ddot": 0,
        "tle_line1": "1 30358U 99025ABV 25343.53010560  .00006300  00000+0  28445-2 0  9994",
        "tle_line2": "2 30358  98.5543 172.7468 0082834 208.9036 212.9777 14.20629974968724"
      },
      "geometry": {
        "type": "Point",
        "coordinates": [
          -72.80541630539129,
          -80.67285515331211
        ]
      }
    },
    {
      "type": "Feature",
      "properties": {
        "norad_id": 30359,
        "name": "FENGYUN 1C DEB",
        "group": "fengyun-1c-debris",
        "lat": 30.09908948204191,
        "lon": -3.6231400719275206,
        "alt_km": 1012.8379551100479,
        "timestamp": "2025-12-10T09:57:44.975120+00:00",
        "meta_object_name": "FENGYUN 1C DEB",
        "meta_object_id": "1999-025ABW",
        "meta_epoch": "2025-12-09T10:51:27.973440",
        "meta_mean_motion": 13.93967483,
        "meta_eccentricity": 0.01452007,
        "meta_inclination": 101.6273,
        "meta_ra_of_asc_node": 168.3141,
        "meta_arg_of_pericenter": 350.6908,
        "meta_mean_anomaly": 9.1558,
        "meta_ephemeris_type": 0,
        "meta_classification_type": "U",
        "meta_norad_cat_id": 30359,
        "meta_element_set_no": 999,
        "meta_rev_at_epoch": 95023,
        "meta_bstar": 0.003545301,
        "meta_mean_motion_dot": 5.053e-05,
        "meta_mean_motion_ddot": 0,
        "tle_line1": "1 30359U 99025ABW 25343.45240710  .00005053  00000+0  35453-2 0  9999",
        "tle_line2": "2 30359 101.6273 168.3141 0145200 350.6908   9.1558 13.93967483950239"
      },
      "geometry": {
        "type": "Point",
        "coordinates": [
          -3.6231400719275206,
          30.09908948204191
        ]
      }
    }
  ]
}